CCSDS_OMM_VERS = 2.0
CREATION_DATE  = 
ORIGINATOR     = 

OBJECT_NAME    = STARLINK-36490
OBJECT_ID      = 2026-002A
CENTER_NAME    = EARTH
REF_FRAME      = TEME
TIME_SYSTEM    = UTC
MEAN_ELEMENT_THEORY = SGP/SGP4

EPOCH          = 2026-02-02T17:40:17.463072
MEAN_MOTION    = 15.50572085
ECCENTRICITY   = .00007269
INCLINATION    = 42.9960
RA_OF_ASC_NODE = 163.4998
ARG_OF_PERICENTER = 252.3393
MEAN_ANOMALY   = 107.7387

EPHEMERIS_TYPE = 0
CLASSIFICATION_TYPE = U
NORAD_CAT_ID   = 67305
ELEMENT_SET_NO = 999
REV_AT_EPOCH   = 578
BSTAR          = .12773886E-2
MEAN_MOTION_DOT = .75302E-3
MEAN_MOTION_DDOT = 0

CCSDS_OMM_VERS = 2.0
CREATION_DATE  = 
ORIGINATOR     = 

OBJECT_NAME    = STARLINK-36488
OBJECT_ID      = 2026-002B
CENTER_NAME    = EARTH
REF_FRAME      = TEME
TIME_SYSTEM    = UTC
MEAN_ELEMENT_THEORY = SGP/SGP4

EPOCH          = 2026-02-02T17:39:47.460672
MEAN_MOTION    = 15.50608836
ECCENTRICITY   = .00018799
INCLINATION    = 43.0010
RA_OF_ASC_NODE = 163.4975
ARG_OF_PERICENTER = 280.9946
MEAN_ANOMALY   = 79.0703

EPHEMERIS_TYPE = 0
CLASSIFICATION_TYPE = U
NORAD_CAT_ID   = 67306
ELEMENT_SET_NO = 999
REV_AT_EPOCH   = 572
BSTAR          = .19652008E-2
MEAN_MOTION_DOT = .116808E-2
MEAN_MOTION_DDOT = 0

CCSDS_OMM_VERS = 2.0
CREATION_DATE  = 
ORIGINATOR     = 

OBJECT_NAME    = STARLINK-36481
OBJECT_ID      = 2026-002C
CENTER_NAME    = EARTH
REF_FRAME      = TEME
TIME_SYSTEM    = UTC
MEAN_ELEMENT_THEORY = SGP/SGP4

EPOCH          = 2026-02-02T17:38:48.471936
MEAN_MOTION    = 15.50577566
ECCENTRICITY   = .00007395
INCLINATION    = 42.9964
RA_OF_ASC_NODE = 163.4909
ARG_OF_PERICENTER = 260.2798
MEAN_ANOMALY   = 99.7979

EPHEMERIS_TYPE = 0
CLASSIFICATION_TYPE = U
NORAD_CAT_ID   = 67307
ELEMENT_SET_NO = 999
REV_AT_EPOCH   = 572
BSTAR          = .12643396E-2
MEAN_MOTION_DOT = .74536E-3
MEAN_MOTION_DDOT = 0

CCSDS_OMM_VERS = 2.0
CREATION_DATE  = 
ORIGINATOR     = 

OBJECT_NAME    = STARLINK-36449
OBJECT_ID      = 2026-002D
CENTER_NAME    = EARTH
REF_FRAME      = TEME
TIME_SYSTEM    = UTC
MEAN_ELEMENT_THEORY = SGP/SGP4

EPOCH          = 2026-02-02T17:38:18.756384
MEAN_MOTION    = 15.50589065
ECCENTRICITY   = .00017751
INCLINATION    = 43.0005
RA_OF_ASC_NODE = 163.4876
ARG_OF_PERICENTER = 271.3042
MEAN_ANOMALY   = 88.7615

EPHEMERIS_TYPE = 0
CLASSIFICATION_TYPE = U
NORAD_CAT_ID   = 67308
ELEMENT_SET_NO = 999
REV_AT_EPOCH   = 578
BSTAR          = .12614971E-2
MEAN_MOTION_DOT = .74398E-3
MEAN_MOTION_DDOT = 0

CCSDS_OMM_VERS = 2.0
CREATION_DATE  = 
ORIGINATOR     = 

OBJECT_NAME    = STARLINK-36482
OBJECT_ID      = 2026-002E
CENTER_NAME    = EARTH
REF_FRAME      = TEME
TIME_SYSTEM    = UTC
MEAN_ELEMENT_THEORY = SGP/SGP4

EPOCH          = 2026-02-02T16:03:04.689792
MEAN_MOTION    = 15.50607501
ECCENTRICITY   = .00032592
INCLINATION    = 43.0019
RA_OF_ASC_NODE = 163.8525
ARG_OF_PERICENTER = 292.9953
MEAN_ANOMALY   = 67.0564

EPHEMERIS_TYPE = 0
CLASSIFICATION_TYPE = U
NORAD_CAT_ID   = 67309
ELEMENT_SET_NO = 999
REV_AT_EPOCH   = 571
BSTAR          = .12853754E-2
MEAN_MOTION_DOT = .75886E-3
MEAN_MOTION_DDOT = 0

CCSDS_OMM_VERS = 2.0
CREATION_DATE  = 
ORIGINATOR     = 

OBJECT_NAME    = STARLINK-36491
OBJECT_ID      = 2026-002F
CENTER_NAME    = EARTH
REF_FRAME      = TEME
TIME_SYSTEM    = UTC
MEAN_ELEMENT_THEORY = SGP/SGP4

EPOCH          = 2026-02-02T17:39:18.047520
MEAN_MOTION    = 15.50584497
ECCENTRICITY   = .00007918
INCLINATION    = 42.9943
RA_OF_ASC_NODE = 163.4976
ARG_OF_PERICENTER = 264.2673
MEAN_ANOMALY   = 95.8097

EPHEMERIS_TYPE = 0
CLASSIFICATION_TYPE = U
NORAD_CAT_ID   = 67310
ELEMENT_SET_NO = 999
REV_AT_EPOCH   = 572
BSTAR          = .14883299E-2
MEAN_MOTION_DOT = .87975E-3
MEAN_MOTION_DDOT = 0

CCSDS_OMM_VERS = 2.0
CREATION_DATE  = 
ORIGINATOR     = 

OBJECT_NAME    = STARLINK-36495
OBJECT_ID      = 2026-002G
CENTER_NAME    = EARTH
REF_FRAME      = TEME
TIME_SYSTEM    = UTC
MEAN_ELEMENT_THEORY = SGP/SGP4

EPOCH          = 2026-02-02T17:37:49.274976
MEAN_MOTION    = 15.50578428
ECCENTRICITY   = .000058
INCLINATION    = 42.9972
RA_OF_ASC_NODE = 163.4847
ARG_OF_PERICENTER = 268.5286
MEAN_ANOMALY   = 91.5507

EPHEMERIS_TYPE = 0
CLASSIFICATION_TYPE = U
NORAD_CAT_ID   = 67311
ELEMENT_SET_NO = 999
REV_AT_EPOCH   = 588
BSTAR          = .12463902E-2
MEAN_MOTION_DOT = .73465E-3
MEAN_MOTION_DDOT = 0

CCSDS_OMM_VERS = 2.0
CREATION_DATE  = 
ORIGINATOR     = 

OBJECT_NAME    = STARLINK-36485
OBJECT_ID      = 2026-002H
CENTER_NAME    = EARTH
REF_FRAME      = TEME
TIME_SYSTEM    = UTC
MEAN_ELEMENT_THEORY = SGP/SGP4

EPOCH          = 2026-02-02T17:37:19.550784
MEAN_MOTION    = 15.50579874
ECCENTRICITY   = .00008177
INCLINATION    = 42.9970
RA_OF_ASC_NODE = 163.4820
ARG_OF_PERICENTER = 259.2012
MEAN_ANOMALY   = 100.8756

EPHEMERIS_TYPE = 0
CLASSIFICATION_TYPE = U
NORAD_CAT_ID   = 67312
ELEMENT_SET_NO = 999
REV_AT_EPOCH   = 572
BSTAR          = .12939765E-2
MEAN_MOTION_DOT = .76315E-3
MEAN_MOTION_DDOT = 0

CCSDS_OMM_VERS = 2.0
CREATION_DATE  = 
ORIGINATOR     = 

OBJECT_NAME    = STARLINK-36445
OBJECT_ID      = 2026-002J
CENTER_NAME    = EARTH
REF_FRAME      = TEME
TIME_SYSTEM    = UTC
MEAN_ELEMENT_THEORY = SGP/SGP4

EPOCH          = 2026-02-02T16:04:09.344640
MEAN_MOTION    = 15.50304349
ECCENTRICITY   = .00022802
INCLINATION    = 42.9958
RA_OF_ASC_NODE = 163.8565
ARG_OF_PERICENTER = 316.9770
MEAN_ANOMALY   = 43.0912

EPHEMERIS_TYPE = 0
CLASSIFICATION_TYPE = U
NORAD_CAT_ID   = 67313
ELEMENT_SET_NO = 999
REV_AT_EPOCH   = 587
BSTAR          = .17662663E-3
MEAN_MOTION_DOT = .9934E-4
MEAN_MOTION_DDOT = 0

CCSDS_OMM_VERS = 2.0
CREATION_DATE  = 
ORIGINATOR     = 

OBJECT_NAME    = STARLINK-36476
OBJECT_ID      = 2026-002K
CENTER_NAME    = EARTH
REF_FRAME      = TEME
TIME_SYSTEM    = UTC
MEAN_ELEMENT_THEORY = SGP/SGP4

EPOCH          = 2026-02-02T16:03:34.243776
MEAN_MOTION    = 15.50620889
ECCENTRICITY   = .00031835
INCLINATION    = 43.0011
RA_OF_ASC_NODE = 163.8548
ARG_OF_PERICENTER = 286.4054
MEAN_ANOMALY   = 73.6456

EPHEMERIS_TYPE = 0
CLASSIFICATION_TYPE = U
NORAD_CAT_ID   = 67314
ELEMENT_SET_NO = 999
REV_AT_EPOCH   = 570
BSTAR          = .14094238E-2
MEAN_MOTION_DOT = .83362E-3
MEAN_MOTION_DDOT = 0

CCSDS_OMM_VERS = 2.0
CREATION_DATE  = 
ORIGINATOR     = 

OBJECT_NAME    = STARLINK-36463
OBJECT_ID      = 2026-002L
CENTER_NAME    = EARTH
REF_FRAME      = TEME
TIME_SYSTEM    = UTC
MEAN_ELEMENT_THEORY = SGP/SGP4

EPOCH          = 2026-02-02T17:35:21.265728
MEAN_MOTION    = 15.50571500
ECCENTRICITY   = .00007744
INCLINATION    = 42.9920
RA_OF_ASC_NODE = 163.4683
ARG_OF_PERICENTER = 163.2393
MEAN_ANOMALY   = 196.8493

EPHEMERIS_TYPE = 0
CLASSIFICATION_TYPE = U
NORAD_CAT_ID   = 67315
ELEMENT_SET_NO = 999
REV_AT_EPOCH   = 578
BSTAR          = .21218978E-2
MEAN_MOTION_DOT = .126132E-2
MEAN_MOTION_DDOT = 0

CCSDS_OMM_VERS = 2.0
CREATION_DATE  = 
ORIGINATOR     = 

OBJECT_NAME    = STARLINK-36461
OBJECT_ID      = 2026-002M
CENTER_NAME    = EARTH
REF_FRAME      = TEME
TIME_SYSTEM    = UTC
MEAN_ELEMENT_THEORY = SGP/SGP4

EPOCH          = 2026-02-02T16:02:04.965792
MEAN_MOTION    = 15.50660028
ECCENTRICITY   = .00052688
INCLINATION    = 43.0073
RA_OF_ASC_NODE = 163.8549
ARG_OF_PERICENTER = 296.7314
MEAN_ANOMALY   = 63.3007

EPHEMERIS_TYPE = 0
CLASSIFICATION_TYPE = U
NORAD_CAT_ID   = 67316
ELEMENT_SET_NO = 999
REV_AT_EPOCH   = 587
BSTAR          = .14043163E-2
MEAN_MOTION_DOT = .83198E-3
MEAN_MOTION_DDOT = 0

