STARLINK-36490          
1 67305U 26002A   26033.73631323  .00075302  00000+0  12774-2 0  9992
2 67305  42.9960 163.4998 0000726 252.3393 107.7387 15.50572085  5786
STARLINK-36488          
1 67306U 26002B   26033.73596598  .00116808  00000+0  19652-2 0  9996
2 67306  43.0010 163.4975 0001879 280.9946  79.0703 15.50608836  5722
STARLINK-36481          
1 67307U 26002C   26033.73528324  .00074536  00000+0  12643-2 0  9993
2 67307  42.9964 163.4909 0000739 260.2798  99.7979 15.50577566  5725
STARLINK-36449          
1 67308U 26002D   26033.73493931  .00074398  00000+0  12615-2 0  9994
2 67308  43.0005 163.4876 0001775 271.3042  88.7615 15.50589065  5781
STARLINK-36482          
1 67309U 26002E   26033.66880428  .00075886  00000+0  12854-2 0  9996
2 67309  43.0019 163.8525 0003259 292.9953  67.0564 15.50607501  5713
STARLINK-36491          
1 67310U 26002F   26033.73562555  .00087975  00000+0  14883-2 0  9990
2 67310  42.9943 163.4976 0000791 264.2673  95.8097 15.50584497  5723
STARLINK-36495          
1 67311U 26002G   26033.73459809  .00073465  00000+0  12464-2 0  9990
2 67311  42.9972 163.4847 0000580 268.5286  91.5507 15.50578428  5889
STARLINK-36485          
1 67312U 26002H   26033.73425406  .00076315  00000+0  12940-2 0  9993
2 67312  42.9970 163.4820 0000817 259.2012 100.8756 15.50579874  5725
STARLINK-36445          
1 67313U 26002J   26033.66955260  .00009934  00000+0  17663-3 0  9993
2 67313  42.9958 163.8565 0002280 316.9770  43.0912 15.50304349  5871
STARLINK-36476          
1 67314U 26002K   26033.66914634  .00083362  00000+0  14094-2 0  9995
2 67314  43.0011 163.8548 0003183 286.4054  73.6456 15.50620889  5708
STARLINK-36463          
1 67315U 26002L   26033.73288502  .00126132  00000+0  21219-2 0  9992
2 67315  42.9920 163.4683 0000774 163.2393 196.8493 15.50571500  5785
STARLINK-36461          
1 67316U 26002M   26033.66811303  .00083198  00000+0  14043-2 0  9997
2 67316  43.0073 163.8549 0005268 296.7314  63.3007 15.50660028  5873
